[{"OBJECT_NAME":"STARLINK-30924","OBJECT_ID":"2023-180L","EPOCH":"2026-03-09T13:15:44.812800","MEAN_MOTION":15.32095286,"ECCENTRICITY":0.00011382,"INCLINATION":43.0016,"RA_OF_ASC_NODE":265.3714,"ARG_OF_PERICENTER":269.978,"MEAN_ANOMALY":90.0943,"EPHEMERIS_TYPE":0,"CLASSIFICATION_TYPE":"U","NORAD_CAT_ID":58412,"ELEMENT_SET_NO":999,"REV_AT_EPOCH":12934,"BSTAR":3.0113773e-5,"MEAN_MOTION_DOT":6.78e-6,"MEAN_MOTION_DDOT":0},{"OBJECT_NAME":"STARLINK-36160","OBJECT_ID":"2025-286M","EPOCH":"2026-03-09T22:44:31.582464","MEAN_MOTION":15.30186826,"ECCENTRICITY":0.00015011,"INCLINATION":53.1612,"RA_OF_ASC_NODE":357.4384,"ARG_OF_PERICENTER":63.5832,"MEAN_ANOMALY":296.5322,"EPHEMERIS_TYPE":0,"CLASSIFICATION_TYPE":"U","NORAD_CAT_ID":66936,"ELEMENT_SET_NO":999,"REV_AT_EPOCH":1544,"BSTAR":0.0015218668,"MEAN_MOTION_DOT":0.00044969,"MEAN_MOTION_DDOT":0}]
